1 29486U 06042A   20100.41074527 -.00000002  00000-0  00000-0 0  9997
2 29486  54.8860 241.1391 0095138   5.9088 351.1612  2.00577243 99095
1 29486U 06042A   20101.48698630  .00000004  00000-0  00000-0 0  9993
2 29486  54.8856 241.0960 0095124   5.9151  48.3111  2.00577189 99129
1 29486U 06042A   20102.40472834  .00000007  00000-0  00000+0 0  9994
2 29486  54.8853 241.0593 0095115   5.9213 351.0085  2.00577149 99251
1 29486U 06042A   20103.44961130  .00000005  00000-0  00000-0 0  9990
2 29486  54.8848 241.0176 0095100   5.9254  25.5165  2.00577103 99163
1 29486U 06042A   20103.65552271  .00000005  00000-0  00000-0 0  9995
2 29486  54.8848 241.0094 0095099   5.9250 174.2059  2.00577094 99168
1 29486U 06042A   20104.44254624 -.00000001  00000-0  00000-0 0  9991
2 29486  54.8844 240.9779 0095090   5.9321  22.5099  2.00577063 99303
1 29486U 06042A   20105.46711756 -.00000011  00000-0  00000-0 0  9999
2 29486  54.8840 240.9370 0095079   5.9404  42.3463  2.00577023 99205
1 29486U 06042A   20106.48695704 -.00000023  00000-0  00000+0 0  9998
2 29486  54.8836 240.8962 0095068   5.9483  58.7658  2.00576972 99345
1 29486U 06042A   20106.48695704 -.00000023  00000-0  00000-0 0  9999
2 29486  54.8836 240.8962 0095068   5.9483  58.7658  2.00576972 99222
1 29486U 06042A   20107.38932104 -.00000034  00000-0  00000-0 0  9999
2 29486  54.8832 240.8602 0095058   5.9559 350.3564  2.00576929 99232
1 29486U 06042A   20108.45661924 -.00000044  00000-0  00000-0 0  9998
2 29486  54.8828 240.8175 0095053   5.9732  41.0362  2.00576875 99263
1 29486U 06042A   20109.39605222 -.00000048  00000-0  00000+0 0  9994
2 29486  54.8824 240.7800 0095041   5.9809 359.3938  2.00576833 99409
1 29486U 06042A   20110.37036705 -.00000048  00000-0  00000-0 0  9999
2 29486  54.8821 240.7410 0095023   5.9824 342.9458  2.00576793 99297
1 29486U 06042A   20111.39029647 -.00000043  00000-0  00000-0 0  9994
2 29486  54.8817 240.7004 0095008   5.9876 359.4321  2.00576742 99321
1 29486U 06042A   20111.87549417 -.00000039  00000-0  00000+0 0  9993
2 29486  54.8815 240.6810 0095002   5.9897 349.7914  2.00576716 99444
1 29486U 06042A   20112.44861076 -.00000033  00000-0  00000-0 0  9990
2 29486  54.8813 240.6581 0094996   5.9955  43.6335  2.00576693 99343
1 29486U 06042A   20113.46937774 -.00000022  00000-0  00000-0 0  9990
2 29486  54.8809 240.6173 0094989   6.0046  60.7201  2.00576627 99361
1 29486U 06042A   20114.87184625 -.00000005  00000-0  00000+0 0  9995
2 29486  54.8804 240.5613 0094982   6.0170 353.4298  2.00576532 99504
1 29486U 06042A   20115.37706819 -.00000000  00000-0  00000-0 0  9992
2 29486  54.8802 240.5411 0094980   6.0223 358.2450  2.00576491 99401
1 29486U 06042A   20116.37640125  .00000009  00000-0  00000-0 0  9998
2 29486  54.8798 240.5012 0094976   6.0305 359.8545  2.00576415 99428
1 29486U 06042A   20117.36377208  .00000014  00000-0  00000+0 0  9992
2 29486  54.8794 240.4618 0094967   6.0345 352.8301  2.00576336 99558
1 29486U 06042A   20118.85529786  .00000015  00000-0  00000-0 0  9999
2 29486  54.8788 240.4022 0094951   6.0364 349.8574  2.00576221 99465
1 29486U 06042A   20119.46480764  .00000013  00000-0  00000+0 0  9996
2 29486  54.8786 240.3779 0094945   6.0385  69.9814  2.00576171 99604
1 29486U 06042A   20119.85990063  .00000011  00000-0  00000-0 0  9996
2 29486  54.8784 240.3621 0094945   6.0405 355.2754  2.00576138 99495
1 29486U 06042A   20120.36605990  .00000007  00000-0  00000-0 0  9991
2 29486  54.8782 240.3419 0094944   6.0423   0.7704  2.00576096 99509
1 29486U 06042A   20121.60163340 -.00000003  00000-0  00000+0 0  9993
2 29486  54.8777 240.2925 0094941   6.0420 172.9759  2.00575994 99641
1 29486U 06042A   20122.36777955 -.00000010  00000-0  00000-0 0  9999
2 29486  54.8774 240.2619 0094937   6.0496   6.2008  2.00575932 99543
1 29486U 06042A   20123.32818292 -.00000018  00000-0  00000-0 0  9994
2 29486  54.8770 240.2235 0094936   6.0555 339.6999  2.00575858 99558
1 29486U 06042A   20123.84483925 -.00000021  00000-0  00000+0 0  9995
2 29486  54.8768 240.2028 0094929   6.0533 352.7785  2.00575824 99689
1 29486U 06042A   20123.84483925 -.00000021  00000-0  00000-0 0  9996
2 29486  54.8768 240.2028 0094929   6.0533 352.7785  2.00575824 99566
1 29486U 06042A   20124.34857674 -.00000024  00000-0  00000-0 0  9991
2 29486  54.8766 240.1827 0094926   6.0548 356.5244  2.00575786 99584
1 29486U 06042A   20125.34814074 -.00000025  00000-0  00000-0 0  9990
2 29486  54.8763 240.1427 0094918   6.0596 358.3022  2.00575725 99601
1 29486U 06042A   20126.40232692 -.00000022  00000-0  00000+0 0  9994
2 29486  54.8759 240.1006 0094918   6.0723  39.5142  2.00575657 99741
1 29486U 06042A   20127.47493521 -.00000015  00000-0  00000-0 0  9995
2 29486  54.8755 240.0577 0094911   6.0770  94.0363  2.00575589 99648
1 29486U 06042A   20128.43062984 -.00000009  00000-0  00000+0 0  9999
2 29486  54.8752 240.0195 0094905   6.0825  64.1345  2.00575533 99787
1 29486U 06042A   20128.43062984 -.00000009  00000-0  00000-0 0  9990
2 29486  54.8752 240.0195 0094905   6.0825  64.1345  2.00575533 99664
1 29486U 06042A   20129.38892516 -.00000004  00000-0  00000-0 0  9992
2 29486  54.8748 239.9812 0094900   6.0863  36.1123  2.00575489 99684
1 29486U 06042A   20130.40367608 -.00000003  00000-0  00000-0 0  9995
2 29486  54.8745 239.9407 0094895   6.0926  48.8535  2.00575435 99705
1 29486U 06042A   20131.40308756 -.00000006  00000-0  00000+0 0  9997
2 29486  54.8740 239.9008 0094890   6.0964  50.5205  2.00575384 99846
1 29486U 06042A   20132.41980795 -.00000014  00000-0  00000-0 0  9998
2 29486  54.8736 239.8602 0094882   6.0975  64.6886  2.00575331 99745
1 29486U 06042A   20132.81795837 -.00000018  00000-0  00000-0 0  9997
2 29486  54.8734 239.8442 0094882   6.1001 352.1886  2.00575315 99743
1 29486U 06042A   20133.82294299 -.00000030  00000-0  00000+0 0  9998
2 29486  54.8730 239.8041 0094877   6.1057 357.8778  2.00575271 99898
1 29486U 06042A   20133.82294299 -.00000030  00000-0  00000-0 0  9999
2 29486  54.8730 239.8041 0094877   6.1057 357.8778  2.00575271 99775
1 29486U 06042A   20135.31177146 -.00000045  00000-0  00000-0 0  9992
2 29486  54.8724 239.7446 0094870   6.1209 352.9385  2.00575203 99795
1 29486U 06042A   20136.44792385 -.00000051  00000-0  00000+0 0  9991
2 29486  54.8719 239.6992 0094857   6.1264  93.3428  2.00575144 99945
1 29486U 06042A   20137.33968867 -.00000051  00000-0  00000-0 0  9991
2 29486  54.8716 239.6636 0094849   6.1298  17.2778  2.00575100 99849
1 29486U 06042A   20138.30937856 -.00000046  00000-0  00000-0 0  9997
2 29486  54.8713 239.6249 0094843   6.1352 357.4799  2.00575041 99869
1 29486U 06042A   20139.73939501 -.00000032  00000-0  00000+0 0  9998
2 29486  54.8707 239.5677 0094832   6.1359 310.0856  2.00574961100009
1 29486U 06042A   20141.42723139 -.00000010  00000-0  00000-0 0  9992
2 29486  54.8702 239.5004 0094822   6.1443  88.8529  2.00574838 99929
1 29486U 06042A   20141.79082319 -.00000005  00000-0  00000+0 0  9993
2 29486  54.8700 239.4858 0094825   6.1473 351.3971  2.00574809100042
1 29486U 06042A   20141.79082319 -.00000005  00000-0  00000-0 0  9994
2 29486  54.8700 239.4858 0094825   6.1473 351.3971  2.00574809 99926
1 29486U 06042A   20142.79586559  .00000007  00000-0  00000-0 0  9991
2 29486  54.8696 239.4457 0094823   6.1538 357.1249  2.00574728 99950
1 29486U 06042A   20143.29042956  .00000012  00000-0  00000-0 0  9991
2 29486  54.8695 239.4259 0094822   6.1564 354.2435  2.00574690 99961
1 29486U 06042A   20147.87855104  .00000018  00000-0  00000+0 0  9991
2 29486  54.8677 239.2426 0094801   6.1554  67.2912  2.00574261100172
1 29486U 06042A   20147.87855104  .00000018  00000-0  00000-0 0  9992
2 29486  54.8677 239.2426 0094801   6.1554  67.2912  2.00574261100059
1 29486U 06042A   20150.34406819 -.00000000  00000-0  00000-0 0  9995
2 29486  54.8668 239.1440 0094803   6.1574  47.6178  2.00574046100224
1 29486U 06042A   20150.76378279 -.00000003  00000-0  00000-0 0  9992
2 29486  54.8667 239.1272 0094808   6.1629 350.6844  2.00574008100104
1 29486U 06042A   20151.34261326 -.00000005  00000-0  00000-0 0  9993
2 29486  54.8665 239.1041 0094810   6.1654  48.6499  2.00573956100120
1 29486U 06042A   20152.40879196 -.00000006  00000-0  00000-0 0  9992
2 29486  54.8662 239.0614 0094815   6.1746  98.5184  2.00573875100269
1 29486U 06042A   20154.32966927  .00000003  00000-0  00000-0 0  9990
2 29486  54.8656 238.9846 0094815   6.1820  45.5578  2.00573746100187
1 29486U 06042A   20155.25029035  .00000010  00000-0  00000+0 0  9990
2 29486  54.8653 238.9478 0094818   6.1888 350.3220  2.00573684100319
1 29486U 06042A   20157.37774122  .00000021  00000-0  00000+0 0  9991
2 29486  54.8647 238.8627 0094817   6.1930  86.5274  2.00573547100364
1 29486U 06042A   20158.31466642  .00000020  00000-0  00000-0 0  9991
2 29486  54.8644 238.8253 0094818   6.1971  43.0668  2.00573500100265
1 29486U 06042A   20160.74186028  .00000000  00000-0  00000+0 0  9995
2 29486  54.8636 238.7282 0094830   6.2160 355.6968  2.00573370100431
1 29486U 06042A   20160.84771354 -.00000001  00000-0  00000-0 0  9991
2 29486  54.8635 238.7240 0094827   6.2145  72.1335  2.00573355100435
1 29486U 06042A   20162.37328564 -.00000016  00000-0  00000-0 0  9998
2 29486  54.8630 238.6630 0094828   6.2281  93.7176  2.00573281100344
1 29486U 06042A   20164.33583432 -.00000024  00000-0  00000+0 0  9991
2 29486  54.8624 238.5846 0094825   6.2428  70.8354  2.00573178100502
1 29486U 06042A   20165.36487535 -.00000019  00000-0  00000-0 0  9997
2 29486  54.8622 238.5434 0094823   6.2478  93.8877  2.00573111100520
1 29486U 06042A   20167.22236409  .00000000  00000-0  00000-0 0  9995
2 29486  54.8617 238.4691 0094826   6.2572 355.1468  2.00572998100449
1 29486U 06042A   20169.20052182  .00000028  00000-0  00000+0 0  9998
2 29486  54.8611 238.3901 0094838   6.2729 343.5322  2.00572856100592
